1 27424U 02022A   11301.85481438 -.00006646  00000-0 -14679-2 0  1065
2 27424 098.2081 240.5616 0001232 113.6400 246.5454 14.57069560504536